[{"OBJECT_NAME":"COSMOS 2251 DEB","OBJECT_ID":"1993-036JG","EPOCH":"2026-04-26T20:31:31.376064","MEAN_MOTION":14.34143475,"ECCENTRICITY":0.0025478,"INCLINATION":74.0391,"RA_OF_ASC_NODE":63.59,"ARG_OF_PERICENTER":118.0757,"MEAN_ANOMALY":273.3297,"EPHEMERIS_TYPE":0,"CLASSIFICATION_TYPE":"U","NORAD_CAT_ID":34045,"ELEMENT_SET_NO":999,"REV_AT_EPOCH":89970,"BSTAR":7.5084e-5,"MEAN_MOTION_DOT":1.85e-6,"MEAN_MOTION_DDOT":0},{"OBJECT_NAME":"COSMOS 2251 DEB","OBJECT_ID":"1993-036JH","EPOCH":"2026-04-26T10:10:39.578880","MEAN_MOTION":14.47747245,"ECCENTRICITY":0.00770311,"INCLINATION":74.0355,"RA_OF_ASC_NODE":118.7151,"ARG_OF_PERICENTER":171.8943,"MEAN_ANOMALY":343.8869,"EPHEMERIS_TYPE":0,"CLASSIFICATION_TYPE":"U","NORAD_CAT_ID":34046,"ELEMENT_SET_NO":999,"REV_AT_EPOCH":89774,"BSTAR":0.00095904109,"MEAN_MOTION_DOT":3.651e-5,"MEAN_MOTION_DDOT":0},{"OBJECT_NAME":"COSMOS 2251 DEB","OBJECT_ID":"1993-036JM","EPOCH":"2026-04-26T07:11:04.191648","MEAN_MOTION":13.96573868,"ECCENTRICITY":0.02169598,"INCLINATION":74.0851,"RA_OF_ASC_NODE":139.1398,"ARG_OF_PERICENTER":172.0014,"MEAN_ANOMALY":205.0622,"EPHEMERIS_TYPE":0,"CLASSIFICATION_TYPE":"U","NORAD_CAT_ID":34050,"ELEMENT_SET_NO":999,"REV_AT_EPOCH":87310,"BSTAR":0.00035420275,"MEAN_MOTION_DOT":5.75e-6,"MEAN_MOTION_DDOT":0},{"OBJECT_NAME":"COSMOS 2251 DEB","OBJECT_ID":"1993-036JQ","EPOCH":"2026-04-26T18:35:59.909280","MEAN_MOTION":13.49323593,"ECCENTRICITY":0.0423746,"INCLINATION":73.846,"RA_OF_ASC_NODE":24.5073,"ARG_OF_PERICENTER":150.8061,"MEAN_ANOMALY":211.7469,"EPHEMERIS_TYPE":0,"CLASSIFICATION_TYPE":"U","NORAD_CAT_ID":34053,"ELEMENT_SET_NO":999,"REV_AT_EPOCH":84505,"BSTAR":0.00045649,"MEAN_MOTION_DOT":4.81e-6,"MEAN_MOTION_DDOT":0},{"OBJECT_NAME":"COSMOS 2251 DEB","OBJECT_ID":"1993-036JT","EPOCH":"2026-04-26T15:24:43.315200","MEAN_MOTION":14.21513519,"ECCENTRICITY":0.0126113,"INCLINATION":74.0582,"RA_OF_ASC_NODE":194.9431,"ARG_OF_PERICENTER":211.4039,"MEAN_ANOMALY":318.4762,"EPHEMERIS_TYPE":0,"CLASSIFICATION_TYPE":"U","NORAD_CAT_ID":34056,"ELEMENT_SET_NO":999,"REV_AT_EPOCH":88327,"BSTAR":0.0013793,"MEAN_MOTION_DOT":3.249e-5,"MEAN_MOTION_DDOT":0},{"OBJECT_NAME":"COSMOS 2251 DEB","OBJECT_ID":"1993-036JV","EPOCH":"2026-04-26T20:03:07.883424","MEAN_MOTION":13.56243899,"ECCENTRICITY":0.0377262,"INCLINATION":73.9337,"RA_OF_ASC_NODE":319.1053,"ARG_OF_PERICENTER":288.6578,"MEAN_ANOMALY":92.6293,"EPHEMERIS_TYPE":0,"CLASSIFICATION_TYPE":"U","NORAD_CAT_ID":34058,"ELEMENT_SET_NO":999,"REV_AT_EPOCH":84974,"BSTAR":0.00033609,"MEAN_MOTION_DOT":3.49e-6,"MEAN_MOTION_DDOT":0},{"OBJECT_NAME":"COSMOS 2251 DEB","OBJECT_ID":"1993-036JW","EPOCH":"2026-04-26T20:42:24.053760","MEAN_MOTION":14.53809477,"ECCENTRICITY":0.0017149,"INCLINATION":74.0364,"RA_OF_ASC_NODE":291.169,"ARG_OF_PERICENTER":336.2851,"MEAN_ANOMALY":147.4419,"EPHEMERIS_TYPE":0,"CLASSIFICATION_TYPE":"U","NORAD_CAT_ID":34059,"ELEMENT_SET_NO":999,"REV_AT_EPOCH":90422,"BSTAR":0.00047848,"MEAN_MOTION_DOT":1.985e-5,"MEAN_MOTION_DDOT":0},{"OBJECT_NAME":"COSMOS 2251 DEB","OBJECT_ID":"1993-036JY","EPOCH":"2026-04-26T19:33:50.675040","MEAN_MOTION":14.40656049,"ECCENTRICITY":0.0019359,"INCLINATION":74.0411,"RA_OF_ASC_NODE":13.6469,"ARG_OF_PERICENTER":62.0866,"MEAN_ANOMALY":4.6944,"EPHEMERIS_TYPE":0,"CLASSIFICATION_TYPE":"U","NORAD_CAT_ID":34061,"ELEMENT_SET_NO":999,"REV_AT_EPOCH":90125,"BSTAR":0.00027604,"MEAN_MOTION_DOT":8.57e-6,"MEAN_MOTION_DDOT":0},{"OBJECT_NAME":"COSMOS 2251 DEB","OBJECT_ID":"1993-036JZ","EPOCH":"2026-04-26T14:05:51.766080","MEAN_MOTION":14.83237019,"ECCENTRICITY":0.0069417,"INCLINATION":74.0271,"RA_OF_ASC_NODE":231.7536,"ARG_OF_PERICENTER":276.5847,"MEAN_ANOMALY":99.534,"EPHEMERIS_TYPE":0,"CLASSIFICATION_TYPE":"U","NORAD_CAT_ID":34062,"ELEMENT_SET_NO":999,"REV_AT_EPOCH":90592,"BSTAR":0.0019909,"MEAN_MOTION_DOT":0.00016984,"MEAN_MOTION_DDOT":0},{"OBJECT_NAME":"COSMOS 2251 DEB","OBJECT_ID":"1993-036KB","EPOCH":"2026-04-26T19:59:04.129152","MEAN_MOTION":14.42830373,"ECCENTRICITY":0.0020745,"INCLINATION":74.0341,"RA_OF_ASC_NODE":20.1409,"ARG_OF_PERICENTER":58.9773,"MEAN_ANOMALY":5.6642,"EPHEMERIS_TYPE":0,"CLASSIFICATION_TYPE":"U","NORAD_CAT_ID":34064,"ELEMENT_SET_NO":999,"REV_AT_EPOCH":90090,"BSTAR":0.0003824,"MEAN_MOTION_DOT":1.253e-5,"MEAN_MOTION_DDOT":0},{"OBJECT_NAME":"COSMOS 2251 DEB","OBJECT_ID":"1993-036KC","EPOCH":"2026-04-26T20:00:58.908960","MEAN_MOTION":14.38205701,"ECCENTRICITY":0.0015518,"INCLINATION":74.0377,"RA_OF_ASC_NODE":9.2524,"ARG_OF_PERICENTER":78.8327,"MEAN_ANOMALY":357.5967,"EPHEMERIS_TYPE":0,"CLASSIFICATION_TYPE":"U","NORAD_CAT_ID":34065,"ELEMENT_SET_NO":999,"REV_AT_EPOCH":90147,"BSTAR":0.00012087,"MEAN_MOTION_DOT":3.41e-6,"MEAN_MOTION_DDOT":0},{"OBJECT_NAME":"COSMOS 2251 DEB","OBJECT_ID":"1993-036KH","EPOCH":"2026-04-26T07:52:58.581120","MEAN_MOTION":14.81512284,"ECCENTRICITY":0.00195643,"INCLINATION":73.999,"RA_OF_ASC_NODE":210.8055,"ARG_OF_PERICENTER":294.1693,"MEAN_ANOMALY":122.4398,"EPHEMERIS_TYPE":0,"CLASSIFICATION_TYPE":"U","NORAD_CAT_ID":34070,"ELEMENT_SET_NO":999,"REV_AT_EPOCH":90601,"BSTAR":0.0016310019,"MEAN_MOTION_DOT":0.00012824,"MEAN_MOTION_DDOT":0},{"OBJECT_NAME":"COSMOS 2251 DEB","OBJECT_ID":"1993-036KK","EPOCH":"2026-04-26T12:16:49.414656","MEAN_MOTION":14.59230389,"ECCENTRICITY":0.00411811,"INCLINATION":74.0566,"RA_OF_ASC_NODE":147.8569,"ARG_OF_PERICENTER":114.4816,"MEAN_ANOMALY":38.9921,"EPHEMERIS_TYPE":0,"CLASSIFICATION_TYPE":"U","NORAD_CAT_ID":34114,"ELEMENT_SET_NO":999,"REV_AT_EPOCH":89765,"BSTAR":0.0017163224,"MEAN_MOTION_DOT":8.176e-5,"MEAN_MOTION_DDOT":0},{"OBJECT_NAME":"COSMOS 2251 DEB","OBJECT_ID":"1993-036KL","EPOCH":"2026-04-26T14:41:36.441312","MEAN_MOTION":14.81877189,"ECCENTRICITY":0.0030591,"INCLINATION":74.0068,"RA_OF_ASC_NODE":335.4779,"ARG_OF_PERICENTER":126.8708,"MEAN_ANOMALY":233.5281,"EPHEMERIS_TYPE":0,"CLASSIFICATION_TYPE":"U","NORAD_CAT_ID":34115,"ELEMENT_SET_NO":999,"REV_AT_EPOCH":91408,"BSTAR":0.0011075,"MEAN_MOTION_DOT":8.81e-5,"MEAN_MOTION_DDOT":0},{"OBJECT_NAME":"COSMOS 2251 DEB","OBJECT_ID":"1993-036KM","EPOCH":"2026-04-26T19:51:19.572768","MEAN_MOTION":14.53918647,"ECCENTRICITY":0.0010777,"INCLINATION":74.0398,"RA_OF_ASC_NODE":287.7512,"ARG_OF_PERICENTER":333.2449,"MEAN_ANOMALY":137.3352,"EPHEMERIS_TYPE":0,"CLASSIFICATION_TYPE":"U","NORAD_CAT_ID":34116,"ELEMENT_SET_NO":999,"REV_AT_EPOCH":90449,"BSTAR":0.00065336,"MEAN_MOTION_DOT":2.724e-5,"MEAN_MOTION_DDOT":0},{"OBJECT_NAME":"COSMOS 2251 DEB","OBJECT_ID":"1993-036KN","EPOCH":"2026-04-26T08:04:49.656576","MEAN_MOTION":14.40598669,"ECCENTRICITY":0.00557419,"INCLINATION":74.0372,"RA_OF_ASC_NODE":95.026,"ARG_OF_PERICENTER":142.0078,"MEAN_ANOMALY":218.503,"EPHEMERIS_TYPE":0,"CLASSIFICATION_TYPE":"U","NORAD_CAT_ID":34117,"ELEMENT_SET_NO":999,"REV_AT_EPOCH":90061,"BSTAR":0.00045468521,"MEAN_MOTION_DOT":1.45e-5,"MEAN_MOTION_DDOT":0}]
