COSMOS 2251 DEB         
1 34045U 93036JG  26116.85522426  .00000185  00000+0  75084-4 0  9998
2 34045  74.0391  63.5900 0025478 118.0757 273.3297 14.34143475899702
COSMOS 2251 DEB         
1 34046U 93036JH  26116.42406920  .00003651  00000+0  95904-3 0  9995
2 34046  74.0355 118.7151 0077031 171.8943 343.8869 14.47747245897749
COSMOS 2251 DEB         
1 34050U 93036JM  26116.29935407  .00000575  00000+0  35420-3 0  9991
2 34050  74.0851 139.1398 0216959 172.0014 205.0622 13.96573868873102
COSMOS 2251 DEB         
1 34053U 93036JQ  26116.77499895  .00000481  00000+0  45649-3 0  9993
2 34053  73.8460  24.5073 0423746 150.8061 211.7469 13.49323593845057
COSMOS 2251 DEB         
1 34056U 93036JT  26116.64216800  .00003249  00000+0  13793-2 0  9994
2 34056  74.0582 194.9431 0126113 211.4039 318.4762 14.21513519883272
COSMOS 2251 DEB         
1 34058U 93036JV  26116.83550791  .00000349  00000+0  33609-3 0  9994
2 34058  73.9337 319.1053 0377262 288.6578  92.6293 13.56243899849740
COSMOS 2251 DEB         
1 34059U 93036JW  26116.86277840  .00001985  00000+0  47848-3 0  9996
2 34059  74.0364 291.1690 0017149 336.2851 147.4419 14.53809477904220
COSMOS 2251 DEB         
1 34061U 93036JY  26116.81516985  .00000857  00000+0  27604-3 0  9995
2 34061  74.0411  13.6469 0019359  62.0866   4.6944 14.40656049901250
COSMOS 2251 DEB         
1 34062U 93036JZ  26116.58740470  .00016984  00000+0  19909-2 0  9994
2 34062  74.0271 231.7536 0069417 276.5847  99.5340 14.83237019905924
COSMOS 2251 DEB         
1 34064U 93036KB  26116.83268668  .00001253  00000+0  38240-3 0  9991
2 34064  74.0341  20.1409 0020745  58.9773   5.6642 14.42830373900907
COSMOS 2251 DEB         
1 34065U 93036KC  26116.83401515  .00000341  00000+0  12087-3 0  9990
2 34065  74.0377   9.2524 0015518  78.8327 357.5967 14.38205701901479
COSMOS 2251 DEB         
1 34070U 93036KH  26116.32845580  .00012824  00000+0  16310-2 0  9995
2 34070  73.9990 210.8055 0019564 294.1693 122.4398 14.81512284906014
COSMOS 2251 DEB         
1 34114U 93036KK  26116.51168304  .00008176  00000+0  17163-2 0  9999
2 34114  74.0566 147.8569 0041181 114.4816  38.9921 14.59230389897654
COSMOS 2251 DEB         
1 34115U 93036KL  26116.61222733  .00008810  00000+0  11075-2 0  9999
2 34115  74.0068 335.4779 0030591 126.8708 233.5281 14.81877189914089
COSMOS 2251 DEB         
1 34116U 93036KM  26116.82730987  .00002724  00000+0  65336-3 0  9996
2 34116  74.0398 287.7512 0010777 333.2449 137.3352 14.53918647904498
COSMOS 2251 DEB         
1 34117U 93036KN  26116.33668584  .00001450  00000+0  45469-3 0  9996
2 34117  74.0372  95.0260 0055741 142.0078 218.5030 14.40598669900614
